1 63237U 25052AD  25276.65703181  .00028231  00000-0  12326-2 0  9990
2 63237  97.4191 168.7863 0006809 347.5818  12.5249 15.22068834 30872
1 63238U 25052AE  25276.66516921  .00027264  00000-0  11942-2 0  9994
2 63238  97.4194 168.7804 0006888 347.0961  13.0098 15.21966057 30873
1 63239U 25052AF  25276.14354288  .00031869  00000-0  13967-2 0  9999
2 63239  97.4192 168.2535 0006947 350.1363   9.9736 15.21913455 30793
1 63240U 25052AG  25276.23524352  .00032791  00000-0  14499-2 0  9998
2 63240  97.4136 168.1431 0007382 357.9141   2.2063 15.21601175 30804
1 63241U 25052AH  25276.23725050  .00025156  00000-0  11464-2 0  9993
2 63241  97.4101 167.9004 0007673   1.4551 358.6706 15.20619228 30796
1 63242U 25052AJ  25276.23018927  .00013261  00000-0  65149-3 0  9996
2 63242  97.4153 167.5803 0008344  17.9587 342.1940 15.18149889 30767
1 63243U 25052AK  25276.13307931  .00025218  00000-0  11072-2 0  9992
2 63243  97.4127 168.3106 0003859 314.0491  46.0427 15.21916291 30803
1 63244U 25052AL  25276.45023130  .00009092  00000-0  88306-3 0  9991
2 63244  97.7136 167.7135 0004686 354.5976   5.5192 14.92825976 30274
1 63245U 25052AM  25276.67334558  .00006248  00000-0  61313-3 0  9994
2 63245  97.7110 167.8217 0004520  13.4458 346.6881 14.92542096 30309
1 63246U 25052AN  25276.23056769  .00015588  00000-0  14668-2 0  9999
2 63246  97.7068 167.5529 0004872  28.7975 331.3513 14.93944359 30254
1 63247U 25052AP  25276.63788656  .00014054  00000-0  13281-2 0  9998
2 63247  97.7124 168.0547 0003546   7.2218 352.9052 14.93804331 30312
1 63248U 25052AQ  25276.27113966  .00015391  00000-0  14427-2 0  9993
2 63248  97.7136 167.7955 0003313   5.7367 354.3891 14.94104171 30262
1 63249U 25052AR  25276.63243430  .00014974  00000-0  14133-2 0  9994
2 63249  97.7103 168.0126 0003854  15.9802 344.1539 14.93837286 30319
1 63250U 25052AS  25276.22494026  .00016555  00000-0  15605-2 0  9992
2 63250  97.7130 167.6895 0003671 358.3265   1.7942 14.93865563 30259
1 63251U 25052AT  25276.50666062  .00008271  00000-0  79121-3 0  9995
2 63251  97.7084 167.8400 0003736  32.6957 327.4494 14.93460114 30291
1 63252U 25052AU  25276.47776100  .00005714  00000-0  55536-3 0  9990
2 63252  97.7107 167.7611 0003253  27.5412 332.5979 14.92961987 30281
1 63253U 25052AV  25276.63517259  .00006282  00000-0  60480-3 0  9992
2 63253  97.7105 168.0219 0002698  31.2624 328.8756 14.93306064 30312
1 63254U 25052AW  25276.65974355  .00013470  00000-0  86766-3 0  9991
2 63254  97.7123 171.5559 0002750  23.5746 336.5607 15.08463113 30549
1 63255U 25052AX  25276.69018148  .00005190  00000-0  49406-3 0  9995
2 63255  97.7120 168.2977 0002356  28.2682 331.8666 14.93837342 30339
1 63256U 25052AY  25276.63367146  .00004267  00000-0  41516-3 0  9993
2 63256  97.7129 168.0734 0001556  72.4260 287.7129 14.93059939 30311
1 63257U 25052AZ  25272.86452222  .00009776  00000-0  86305-3 0  9990
2 63257  97.7111 164.6597 0002585  74.7286 285.4222 14.96577050 29777
1 63258U 25052BA  25276.44907021  .00009103  00000-0  86426-3 0  9999
2 63258  97.7124 167.9924 0001824  85.6849 274.4580 14.93733600 30299
1 63259U 25052BB  25276.25924532  .00014016  00000-0  13015-2 0  9997
2 63259  97.7159 168.0064 0000907 110.0654 250.0664 14.94500660 30273
1 63260U 25052BC  25276.66011993  .00005050  00000-0  48570-3 0  9995
2 63260  97.7090 168.0998 0003419  96.7942 263.3667 14.93437321 30324
1 63261U 25052BD  25276.65387107  .00014701  00000-0  13365-2 0  9994
2 63261  97.7137 168.5181 0002202 120.1630 239.9809 14.95324245 30342
1 63262U 25052BE  25276.27299546  .00016738  00000-0  15047-2 0  9993
2 63262  97.7133 168.2253 0003044 122.2962 237.8554 14.95734027 30293
1 63263U 25052BF  25276.62897350  .00008365  00000-0  77839-3 0  9995
2 63263  97.7085 168.2946 0003679 103.6444 256.5187 14.94553904 30338
1 63264U 25052BG  25276.64251675  .00007351  00000-0  69189-3 0  9995
2 63264  97.7124 168.2900 0003444 118.5858 241.5709 14.94145259 30331
1 63265U 25053A   25276.53598913  .00337392  00000-0  25178-2 0  9994
2 63265  42.9996 339.4686 0001664 289.2928  70.7759 15.70932923 32954
1 63266U 25053B   25276.59425628  .00233652  00000-0  17691-2 0  9998
2 63266  42.9993 339.0427 0001463 265.5736  94.4964 15.70901247 32969
1 63267U 25053C   25276.55282121  .00259637  00000-0  19583-2 0  9997
2 63267  42.9998 339.6028 0001573 254.6916 105.3778 15.70913125 32951
1 63268U 25053D   25276.57832879  .00228056  00000-0  17283-2 0  9997
2 63268  42.9997 338.9137 0001804 278.5082  81.5581 15.70897572 32965
1 63269U 25053E   25276.58363965  .00224866  00000-0  17053-2 0  9994
2 63269  42.9997 338.9553 0001625 258.6503 101.4183 15.70890741 32967
1 63270U 25053F   25276.55191272  .00242740  00000-0  18360-2 0  9996
2 63270  43.0004 339.5983 0001690 289.2684  70.8001 15.70898306 32958
1 63271U 25053G   25276.56784492  .00230672  00000-0  17481-2 0  9994
2 63271  43.0002 339.7265 0000606 348.6714  11.4140 15.70888650 32958
1 63272U 25053H   25276.54129544  .00277890  00000-0  20921-2 0  9990
2 63272  42.9994 339.5113 0000084 125.8436 234.2439 15.70900281 32954
1 63273U 25053J   25276.57301675  .00222951  00000-0  16898-2 0  9997
2 63273  42.9990 338.8719 0001766 255.6559 104.4113 15.70909922 32960
1 63274U 25053K   25276.54659773  .00126733  00000-0  97324-3 0  9995
2 63274  42.9997 339.5568 0001919 269.3789  90.6859 15.70911003 32950
1 63275U 25053L   25276.58894933  .00327297  00000-0  24463-2 0  9990
2 63275  42.9998 339.0028 0001905 279.3140  80.7512 15.70925677 32953
1 63276U 25053M   25276.56253018  .00219578  00000-0  16653-2 0  9996
2 63276  42.9991 339.6846 0001353 274.9758  85.0955 15.70905178 32946
1 63277U 25053N   25276.55722071  .00354587  00000-0  26394-2 0  9999
2 63277  42.9999 339.6407 0001758 277.2936  82.7731 15.70942019 32953
1 63278U 25053P   25276.65208707  .00051422  00000-0  18620-2 0  9991
2 63278  43.0012  48.8986 0000795 157.0180 203.0707 15.27635312 32171
1 63279U 25053Q   25276.35761492  .00090353  00000-0  32453-2 0  9990
2 63279  43.0048  46.6577 0001683 173.0046 187.0830 15.27657041 32282
1 63280U 25053R   25276.41995080  .00052863  00000-0  19142-2 0  9995
2 63280  43.0050  49.7299 0002281 271.5246  88.5344 15.27623829 32140
1 63281U 25053S   25276.39810366  .00063006  00000-0  22767-2 0  9994
2 63281  43.0013  49.5600 0006503 294.6095  65.4079 15.27605767 32143
1 63282U 25053T   25276.65593489  .00047674  00000-0  17289-2 0  9994
2 63282  43.0040  48.9065 0002934 281.1151  78.9370 15.27613983 32175
1 63283U 25053U   25276.40582276  .00067850  00000-0  24499-2 0  9999
2 63283  43.0018  49.6227 0002935 294.5104  65.5442 15.27613034 32142
1 63284U 25053V   25276.63363555  .00047069  00000-0  17086-2 0  9996
2 63284  43.0026  40.9504 0001839 284.3169  75.7478 15.27589077 32370
1 63285U 25053W   25276.36227509  .00055598  00000-0  20125-2 0  9999
2 63285  43.0038  50.1592 0001871 276.3184  83.7455 15.27615669 32133
1 63286U 25053X   25276.38412090  .00055634  00000-0  20138-2 0  9998
2 63286  43.0027  50.3286 0001109 242.2907 117.7832 15.27615911 32130
1 63287U 25053Y   25276.41223625  .00100594  00000-0  36102-2 0  9991
2 63287  43.0015  49.6745 0004788 299.3010  60.7363 15.27620663 32195
1 63288U 25054A   25275.71227988  .00000044  00000-0  24526-3 0  9998
2 63288  82.4917 238.8649 0022891 235.3287 124.5635 12.42910270 24877
1 63289U 25054B   25275.76626439  .00000036  00000-0  19103-3 0  9994
2 63289  82.4902 238.7571 0019448 223.6323 136.3220 12.42901561 24874
1 63290U 25054C   25275.73898791  .00000049  00000-0  28150-3 0  9991
2 63290  82.4958 238.8295 0013509 209.3357 150.6966 12.42909164 24874
1 63291U 25055A   25273.65876935  .00038399  00000-0  23168-2 0  9990
2 63291  97.6256  47.8098 0016837 318.9370  41.0591 15.10501301 29783
1 63292U 25055B   25276.60571383  .00019224  00000-0  10633-2 0  9997
2 63292  97.6228  51.2184 0012121 328.9327  31.1186 15.13850505 30220
1 63293U 25055C   25276.60157701  .00020750  00000-0  11460-2 0  9997
2 63293  97.6239  51.2525 0011882 327.0177  33.0312 15.13888440 30229
1 63294U 25055D   25276.64807343  .00017937  00000-0  10838-2 0  9997
2 63294  97.6246  50.7325 0016239 303.4850  56.4827 15.10628902 30195
1 63295U 25055E   25276.65877352  .00018515  00000-0  11182-2 0  9992
2 63295  97.6230  50.6840 0014663 298.8338  61.1419 15.10661154 30193
1 63296U 25055F   25276.60844299  .00017956  00000-0  10854-2 0  9995
2 63296  97.6250  50.6600 0012591 288.7900  71.1964 15.10658458 30189
1 63297U 25055G   25276.62786273  .00025633  00000-0  13570-2 0  9994
2 63297  97.6231  51.5089 0010111 329.0400  31.0235 15.15365749 30246
1 63298U 25055H   25276.58683664  .00041341  00000-0  20123-2 0  9996
2 63298  97.6226  51.8554 0010327 323.3761  36.6766 15.18204691 30260
1 63300U 25056A   25273.77328382  .00010349  00000-0  16418-2 0  9998
2 63300  97.9938  37.6553 0001761  74.3954 285.7448 14.72338749 28955
1 63301U 25056B   25273.85863507  .00011191  00000-0  17742-2 0  9998
2 63301  97.9939  37.8549 0002528  96.9701 263.1794 14.72342411 28973
1 63302U 25056C   25276.70979041  .00005584  00000-0  89346-3 0  9996
2 63302  97.9946  40.6655 0002712  83.0847 277.0669 14.72172365 29396
1 63303U 25056D   25276.61089961  .00005152  00000-0  82038-3 0  9992
2 63303  97.9944  40.4842 0003213  55.7666 304.3845 14.72410954 29370
1 63304U 25056E   25276.59346760  .00005095  00000-0  81236-3 0  9998
2 63304  97.9944  40.5086 0002922  34.2123 325.9273 14.72365028 29362
1 63306U 25056G   25276.61238871  .00007407  00000-0  82292-3 0  9998
2 63306  97.9938  44.5340 0044713 104.8467 255.7707 14.86754930 29623
1 63307U 25057A   25276.65434190  .00391973  00000-0  29118-2 0  9997
2 63307  42.9993 130.7670 0001557 242.4870 117.5840 15.70877716 32488
